FENGYUN 1C DEB          
1 30810U 99025AUU 17345.77499171  .00002016  00000-0  16838-2 0  9999
2 30810  98.7120 334.8659 0233430  93.3720 269.4164 13.77572824539788
